[{"OBJECT_NAME":"OBJECT M","OBJECT_ID":"2024-205M","EPOCH":"2026-03-09T22:23:47.520096","MEAN_MOTION":15.27663844,"ECCENTRICITY":0.00036602,"INCLINATION":97.3915,"RA_OF_ASC_NODE":144.193,"ARG_OF_PERICENTER":310.2554,"MEAN_ANOMALY":49.8364,"EPHEMERIS_TYPE":0,"CLASSIFICATION_TYPE":"U","NORAD_CAT_ID":61905,"ELEMENT_SET_NO":999,"REV_AT_EPOCH":7334,"BSTAR":0.00036391974,"MEAN_MOTION_DOT":9.771e-5,"MEAN_MOTION_DDOT":0},{"OBJECT_NAME":"STARLINK-32682","OBJECT_ID":"2024-229E","EPOCH":"2026-03-09T11:44:02.343264","MEAN_MOTION":15.27589471,"ECCENTRICITY":0.00012062,"INCLINATION":42.9945,"RA_OF_ASC_NODE":239.1712,"ARG_OF_PERICENTER":206.4951,"MEAN_ANOMALY":153.584,"EPHEMERIS_TYPE":0,"CLASSIFICATION_TYPE":"U","NORAD_CAT_ID":62196,"ELEMENT_SET_NO":999,"REV_AT_EPOCH":7090,"BSTAR":0.0011135019,"MEAN_MOTION_DOT":0.00030515,"MEAN_MOTION_DDOT":0}]
